{
    "week": 296,
    "satellites": [
        {
            "Name": "GSAT0218 (GALILEO 22)",
            "Line1": "1 43058U 17079D   24341.32147332  .00000031  00000+0  00000+0 0  9995",
            "Line2": "2 43058  55.2659 236.8570 0003041 301.3942  58.6584  1.70473791 43478",
            "SatelliteNumber": "43058",
            "Classification": "U",
            "LaunchYear": "17",
            "LaunchNumber": "079",
            "PieceOfLaunch": "D",
            "EpochYear": "24",
            "EpochDay": 341.32147332,
            "FirstDerivativeMeanMotion": 3.1e-07,
            "SecondDerivativeMeanMotion": "00000+0",
            "BSTAR": "00000+0",
            "SetNumber": "999",
            "Inclination": 55.2659,
            "RAAN": 236.857,
            "Eccentricity": 0.0003041,
            "ArgumentOfPerigee": 301.3942,
            "MeanAnomaly": 58.6584,
            "MeanMotion": 1.70473791,
            "RevolutionNumber": "4347"
        },
        {
            "Name": "GSAT0221 (GALILEO 25)",
            "Line1": "1 43564U 18060A   24341.80906705 -.00000060  00000+0  00000+0 0  9991",
            "Line2": "2 43564  57.2951 356.8187 0006315 276.9659  83.0046  1.70475759 39660",
            "SatelliteNumber": "43564",
            "Classification": "U",
            "LaunchYear": "18",
            "LaunchNumber": "060",
            "PieceOfLaunch": "A",
            "EpochYear": "24",
            "EpochDay": 341.80906705,
            "FirstDerivativeMeanMotion": -6e-07,
            "SecondDerivativeMeanMotion": "00000+0",
            "BSTAR": "00000+0",
            "SetNumber": "999",
            "Inclination": 57.2951,
            "RAAN": 356.8187,
            "Eccentricity": 0.0006315,
            "ArgumentOfPerigee": 276.9659,
            "MeanAnomaly": 83.0046,
            "MeanMotion": 1.70475759,
            "RevolutionNumber": "3966"
        },
        {
            "Name": "GSAT0222 (GALILEO 26)",
            "Line1": "1 43565U 18060B   24342.61441315 -.00000062  00000+0  00000+0 0  9995",
            "Line2": "2 43565  57.2991 356.7989 0005789 257.5995 102.3775  1.70475514 39726",
            "SatelliteNumber": "43565",
            "Classification": "U",
            "LaunchYear": "18",
            "LaunchNumber": "060",
            "PieceOfLaunch": "B",
            "EpochYear": "24",
            "EpochDay": 342.61441315,
            "FirstDerivativeMeanMotion": -6.2e-07,
            "SecondDerivativeMeanMotion": "00000+0",
            "BSTAR": "00000+0",
            "SetNumber": "999",
            "Inclination": 57.2991,
            "RAAN": 356.7989,
            "Eccentricity": 0.0005789,
            "ArgumentOfPerigee": 257.5995,
            "MeanAnomaly": 102.3775,
            "MeanMotion": 1.70475514,
            "RevolutionNumber": "3972"
        },
        {
            "Name": "GSAT0219 (GALILEO 23)",
            "Line1": "1 43566U 18060C   24342.24946132 -.00000061  00000+0  00000+0 0  9991",
            "Line2": "2 43566  57.2978 356.8106 0005462 282.0360  77.9448  1.70475710 39699",
            "SatelliteNumber": "43566",
            "Classification": "U",
            "LaunchYear": "18",
            "LaunchNumber": "060",
            "PieceOfLaunch": "C",
            "EpochYear": "24",
            "EpochDay": 342.24946132,
            "FirstDerivativeMeanMotion": -6.1e-07,
            "SecondDerivativeMeanMotion": "00000+0",
            "BSTAR": "00000+0",
            "SetNumber": "999",
            "Inclination": 57.2978,
            "RAAN": 356.8106,
            "Eccentricity": 0.0005462,
            "ArgumentOfPerigee": 282.036,
            "MeanAnomaly": 77.9448,
            "MeanMotion": 1.7047571,
            "RevolutionNumber": "3969"
        },
        {
            "Name": "GSAT0220 (GALILEO 24)",
            "Line1": "1 43567U 18060D   24343.05679002 -.00000062  00000+0  00000+0 0  9992",
            "Line2": "2 43567  57.2978 356.7895 0005757 279.3583  80.6182  1.70475450 39694",
            "SatelliteNumber": "43567",
            "Classification": "U",
            "LaunchYear": "18",
            "LaunchNumber": "060",
            "PieceOfLaunch": "D",
            "EpochYear": "24",
            "EpochDay": 343.05679002,
            "FirstDerivativeMeanMotion": -6.2e-07,
            "SecondDerivativeMeanMotion": "00000+0",
            "BSTAR": "00000+0",
            "SetNumber": "999",
            "Inclination": 57.2978,
            "RAAN": 356.7895,
            "Eccentricity": 0.0005757,
            "ArgumentOfPerigee": 279.3583,
            "MeanAnomaly": 80.6182,
            "MeanMotion": 1.7047545,
            "RevolutionNumber": "3969"
        },
        {
            "Name": "GSAT0223 (GALILEO 27)",
            "Line1": "1 49809U 21116A   24341.73581934 -.00000060  00000+0  00000+0 0  9990",
            "Line2": "2 49809  57.2878 356.7184 0004214 243.2601 116.5558  1.70475744 18674",
            "SatelliteNumber": "49809",
            "Classification": "U",
            "LaunchYear": "21",
            "LaunchNumber": "116",
            "PieceOfLaunch": "A",
            "EpochYear": "24",
            "EpochDay": 341.73581934,
            "FirstDerivativeMeanMotion": -6e-07,
            "SecondDerivativeMeanMotion": "00000+0",
            "BSTAR": "00000+0",
            "SetNumber": "999",
            "Inclination": 57.2878,
            "RAAN": 356.7184,
            "Eccentricity": 0.0004214,
            "ArgumentOfPerigee": 243.2601,
            "MeanAnomaly": 116.5558,
            "MeanMotion": 1.70475744,
            "RevolutionNumber": "1867"
        },
        {
            "Name": "GSAT0224 (GALILEO 28)",
            "Line1": "1 49810U 21116B   24343.27591765 -.00000063  00000+0  00000+0 0  9999",
            "Line2": "2 49810  57.2883 356.6753 0003482 249.3385  88.1986  1.70475658 18724",
            "SatelliteNumber": "49810",
            "Classification": "U",
            "LaunchYear": "21",
            "LaunchNumber": "116",
            "PieceOfLaunch": "B",
            "EpochYear": "24",
            "EpochDay": 343.27591765,
            "FirstDerivativeMeanMotion": -6.3e-07,
            "SecondDerivativeMeanMotion": "00000+0",
            "BSTAR": "00000+0",
            "SetNumber": "999",
            "Inclination": 57.2883,
            "RAAN": 356.6753,
            "Eccentricity": 0.0003482,
            "ArgumentOfPerigee": 249.3385,
            "MeanAnomaly": 88.1986,
            "MeanMotion": 1.70475658,
            "RevolutionNumber": "1872"
        },
        {
            "Name": "GSAT0225 (GALILEO 29)",
            "Line1": "1 59598U 24079A   24342.16039774  .00000053  00000+0  00000+0 0  9996",
            "Line2": "2 59598  54.7935 116.6677 0002812 171.4642 192.5319  1.70474711  3828",
            "SatelliteNumber": "59598",
            "Classification": "U",
            "LaunchYear": "24",
            "LaunchNumber": "079",
            "PieceOfLaunch": "A",
            "EpochYear": "24",
            "EpochDay": 342.16039774,
            "FirstDerivativeMeanMotion": 5.3e-07,
            "SecondDerivativeMeanMotion": "00000+0",
            "BSTAR": "00000+0",
            "SetNumber": "999",
            "Inclination": 54.7935,
            "RAAN": 116.6677,
            "Eccentricity": 0.0002812,
            "ArgumentOfPerigee": 171.4642,
            "MeanAnomaly": 192.5319,
            "MeanMotion": 1.70474711,
            "RevolutionNumber": "382"
        },
        {
            "Name": "GSAT0227 (GALILEO 30)",
            "Line1": "1 59600U 24079C   24341.16401885  .00000051  00000+0  00000+0 0  9993",
            "Line2": "2 59600  54.7864 116.6957 0003468 121.3916 238.6122  1.70474686  3858",
            "SatelliteNumber": "59600",
            "Classification": "U",
            "LaunchYear": "24",
            "LaunchNumber": "079",
            "PieceOfLaunch": "C",
            "EpochYear": "24",
            "EpochDay": 341.16401885,
            "FirstDerivativeMeanMotion": 5.1e-07,
            "SecondDerivativeMeanMotion": "00000+0",
            "BSTAR": "00000+0",
            "SetNumber": "999",
            "Inclination": 54.7864,
            "RAAN": 116.6957,
            "Eccentricity": 0.0003468,
            "ArgumentOfPerigee": 121.3916,
            "MeanAnomaly": 238.6122,
            "MeanMotion": 1.70474686,
            "RevolutionNumber": "385"
        },
        {
            "Name": "GSAT0232 (GALILEO 32)",
            "Line1": "1 61182U 24167A   24321.21686440 -.00000004  00000+0  00000+0 0  9994",
            "Line2": "2 61182  55.3884 237.1378 0015743 276.0571  83.7985  1.73178105  1028",
            "SatelliteNumber": "61182",
            "Classification": "U",
            "LaunchYear": "24",
            "LaunchNumber": "167",
            "PieceOfLaunch": "A",
            "EpochYear": "24",
            "EpochDay": 321.2168644,
            "FirstDerivativeMeanMotion": -4e-08,
            "SecondDerivativeMeanMotion": "00000+0",
            "BSTAR": "00000+0",
            "SetNumber": "999",
            "Inclination": 55.3884,
            "RAAN": 237.1378,
            "Eccentricity": 0.0015743,
            "ArgumentOfPerigee": 276.0571,
            "MeanAnomaly": 83.7985,
            "MeanMotion": 1.73178105,
            "RevolutionNumber": "102"
        }
    ]
}